IRIDIUM 171             
1 43929U 19002H   25232.59855327  .00000039  00000+0  68393-5 0  9992
2 43929  86.3981 119.5344 0002397  89.0561 271.0909 14.34217638345875
IRIDIUM 170             
1 43930U 19002J   25232.54399353  .00000744  00000+0  11415-3 0  9995
2 43930  86.6097 119.2980 0002307  90.0632 270.0849 14.72244520355025
IRIDIUM 167             
1 43931U 19002K   25232.24336800  .00000044  00000+0  85909-5 0  9995
2 43931  86.3974 119.4297 0002341  96.1647 263.9816 14.34217662345828
IRIDIUM 181             
1 56726U 23068S   25232.56354197  .00000459  00000+0  13034-3 0  9990
2 56726  86.4566 182.3659 0002963  85.2560 274.8979 14.43306491119072
IRIDIUM 177             
1 56727U 23068T   25232.56303487  .00001145  00000+0  14724-3 0  9997
2 56727  86.1958 111.5802 0002490  91.0942 269.0564 14.80229193121896
IRIDIUM 174             
1 56728U 23068U   25232.39571089  .00000766  00000+0  11751-3 0  9999
2 56728  86.6104 119.4770 0001853  82.7973 277.3455 14.72257483121760
IRIDIUM 178             
1 56729U 23068V   25232.55212858  .00001049  00000+0  13459-3 0  9996
2 56729  86.6603 150.9903 0002364  86.2663 273.8828 14.80229351121897
IRIDIUM 179             
1 56730U 23068W   25232.34396223  .00001190  00000+0  15316-3 0  9995
2 56730  86.6851 159.1396 0002422  91.5533 268.5966 14.80239093121866
